{"fetchedAt":"2026-06-29T18:07:57.113Z","satellites":[{"id":"26407","name":"GPS BIIR-5  (PRN 22)","constellationId":"gps","omm":{"OBJECT_NAME":"GPS BIIR-5  (PRN 22)","OBJECT_ID":"2000-040A","EPOCH":"2026-06-29T12:07:14.140128","MEAN_MOTION":2.00557856,"ECCENTRICITY":0.0120848,"INCLINATION":54.8501,"RA_OF_ASC_NODE":214.6729,"ARG_OF_PERICENTER":302.5768,"MEAN_ANOMALY":235.1095,"EPHEMERIS_TYPE":0,"CLASSIFICATION_TYPE":"U","NORAD_CAT_ID":26407,"ELEMENT_SET_NO":999,"REV_AT_EPOCH":19019,"BSTAR":0,"MEAN_MOTION_DOT":7.4e-7,"MEAN_MOTION_DDOT":0}},{"id":"27663","name":"GPS BIIR-8  (PRN 16)","constellationId":"gps","omm":{"OBJECT_NAME":"GPS BIIR-8  (PRN 16)","OBJECT_ID":"2003-005A","EPOCH":"2026-06-28T14:39:56.332224","MEAN_MOTION":2.00560056,"ECCENTRICITY":0.01480478,"INCLINATION":54.8808,"RA_OF_ASC_NODE":214.5148,"ARG_OF_PERICENTER":53.1107,"MEAN_ANOMALY":335.2091,"EPHEMERIS_TYPE":0,"CLASSIFICATION_TYPE":"U","NORAD_CAT_ID":27663,"ELEMENT_SET_NO":999,"REV_AT_EPOCH":17154,"BSTAR":0,"MEAN_MOTION_DOT":7.8e-7,"MEAN_MOTION_DDOT":0}},{"id":"28190","name":"GPS BIIR-11 (PRN 19)","constellationId":"gps","omm":{"OBJECT_NAME":"GPS BIIR-11 (PRN 19)","OBJECT_ID":"2004-009A","EPOCH":"2026-06-28T08:45:51.984864","MEAN_MOTION":2.00554511,"ECCENTRICITY":0.01165462,"INCLINATION":54.8202,"RA_OF_ASC_NODE":275.2354,"ARG_OF_PERICENTER":173.5786,"MEAN_ANOMALY":190.098,"EPHEMERIS_TYPE":0,"CLASSIFICATION_TYPE":"U","NORAD_CAT_ID":28190,"ELEMENT_SET_NO":999,"REV_AT_EPOCH":16317,"BSTAR":0,"MEAN_MOTION_DOT":-3.4e-7,"MEAN_MOTION_DDOT":0}},{"id":"28474","name":"GPS BIIR-13 (PRN 02)","constellationId":"gps","omm":{"OBJECT_NAME":"GPS BIIR-13 (PRN 02)","OBJECT_ID":"2004-045A","EPOCH":"2026-06-28T22:16:02.004672","MEAN_MOTION":2.00556587,"ECCENTRICITY":0.01699382,"INCLINATION":55.1288,"RA_OF_ASC_NODE":324.4235,"ARG_OF_PERICENTER":316.6864,"MEAN_ANOMALY":158.1858,"EPHEMERIS_TYPE":0,"CLASSIFICATION_TYPE":"U","NORAD_CAT_ID":28474,"ELEMENT_SET_NO":999,"REV_AT_EPOCH":15866,"BSTAR":0,"MEAN_MOTION_DOT":-9.6e-7,"MEAN_MOTION_DDOT":0}},{"id":"28874","name":"GPS BIIRM-1 (PRN 17)","constellationId":"gps","omm":{"OBJECT_NAME":"GPS BIIRM-1 (PRN 17)","OBJECT_ID":"2005-038A","EPOCH":"2026-06-28T19:37:19.490016","MEAN_MOTION":2.00565022,"ECCENTRICITY":0.01280366,"INCLINATION":54.8685,"RA_OF_ASC_NODE":272.7079,"ARG_OF_PERICENTER":296.2526,"MEAN_ANOMALY":63.1609,"EPHEMERIS_TYPE":0,"CLASSIFICATION_TYPE":"U","NORAD_CAT_ID":28874,"ELEMENT_SET_NO":999,"REV_AT_EPOCH":15207,"BSTAR":0,"MEAN_MOTION_DOT":-2.5e-7,"MEAN_MOTION_DDOT":0}},{"id":"29486","name":"GPS BIIRM-2 (PRN 31)","constellationId":"gps","omm":{"OBJECT_NAME":"GPS BIIRM-2 (PRN 31)","OBJECT_ID":"2006-042A","EPOCH":"2026-06-29T11:03:04.365216","MEAN_MOTION":2.00569238,"ECCENTRICITY":0.0106853,"INCLINATION":54.7121,"RA_OF_ASC_NODE":150.8516,"ARG_OF_PERICENTER":54.7447,"MEAN_ANOMALY":307.5404,"EPHEMERIS_TYPE":0,"CLASSIFICATION_TYPE":"U","NORAD_CAT_ID":29486,"ELEMENT_SET_NO":999,"REV_AT_EPOCH":14464,"BSTAR":0,"MEAN_MOTION_DOT":2.9e-7,"MEAN_MOTION_DDOT":0}},{"id":"29601","name":"GPS BIIRM-3 (PRN 12)","constellationId":"gps","omm":{"OBJECT_NAME":"GPS BIIRM-3 (PRN 12)","OBJECT_ID":"2006-052A","EPOCH":"2026-06-28T09:17:53.380032","MEAN_MOTION":2.00558869,"ECCENTRICITY":0.00849058,"INCLINATION":54.9347,"RA_OF_ASC_NODE":213.562,"ARG_OF_PERICENTER":90.9098,"MEAN_ANOMALY":270.1445,"EPHEMERIS_TYPE":0,"CLASSIFICATION_TYPE":"U","NORAD_CAT_ID":29601,"ELEMENT_SET_NO":999,"REV_AT_EPOCH":14363,"BSTAR":0,"MEAN_MOTION_DOT":8e-7,"MEAN_MOTION_DDOT":0}},{"id":"32260","name":"GPS BIIRM-4 (PRN 15)","constellationId":"gps","omm":{"OBJECT_NAME":"GPS BIIRM-4 (PRN 15)","OBJECT_ID":"2007-047A","EPOCH":"2026-06-27T04:43:25.383648","MEAN_MOTION":2.00554886,"ECCENTRICITY":0.01671439,"INCLINATION":54.1023,"RA_OF_ASC_NODE":79.653,"ARG_OF_PERICENTER":87.598,"MEAN_ANOMALY":274.3314,"EPHEMERIS_TYPE":0,"CLASSIFICATION_TYPE":"U","NORAD_CAT_ID":32260,"ELEMENT_SET_NO":999,"REV_AT_EPOCH":13701,"BSTAR":0,"MEAN_MOTION_DOT":-7e-7,"MEAN_MOTION_DDOT":0}},{"id":"32384","name":"GPS BIIRM-5 (PRN 29)","constellationId":"gps","omm":{"OBJECT_NAME":"GPS BIIRM-5 (PRN 29)","OBJECT_ID":"2007-062A","EPOCH":"2026-06-29T11:29:24.086400","MEAN_MOTION":2.00560923,"ECCENTRICITY":0.0035894,"INCLINATION":55.0217,"RA_OF_ASC_NODE":273.6583,"ARG_OF_PERICENTER":166.4672,"MEAN_ANOMALY":168.7106,"EPHEMERIS_TYPE":0,"CLASSIFICATION_TYPE":"U","NORAD_CAT_ID":32384,"ELEMENT_SET_NO":999,"REV_AT_EPOCH":13575,"BSTAR":0,"MEAN_MOTION_DOT":-2.3e-7,"MEAN_MOTION_DDOT":0}},{"id":"32711","name":"GPS BIIRM-6 (PRN 07)","constellationId":"gps","omm":{"OBJECT_NAME":"GPS BIIRM-6 (PRN 07)","OBJECT_ID":"2008-012A","EPOCH":"2026-06-28T14:28:09.376320","MEAN_MOTION":2.0057279,"ECCENTRICITY":0.02114503,"INCLINATION":54.4988,"RA_OF_ASC_NODE":149.4688,"ARG_OF_PERICENTER":247.9745,"MEAN_ANOMALY":109.734,"EPHEMERIS_TYPE":0,"CLASSIFICATION_TYPE":"U","NORAD_CAT_ID":32711,"ELEMENT_SET_NO":999,"REV_AT_EPOCH":13398,"BSTAR":0,"MEAN_MOTION_DOT":2.6e-7,"MEAN_MOTION_DDOT":0}},{"id":"35752","name":"GPS BIIRM-8 (PRN 05)","constellationId":"gps","omm":{"OBJECT_NAME":"GPS BIIRM-8 (PRN 05)","OBJECT_ID":"2009-043A","EPOCH":"2026-06-28T14:27:20.676960","MEAN_MOTION":2.00553861,"ECCENTRICITY":0.00538161,"INCLINATION":56.2175,"RA_OF_ASC_NODE":27.0036,"ARG_OF_PERICENTER":83.695,"MEAN_ANOMALY":284.8204,"EPHEMERIS_TYPE":0,"CLASSIFICATION_TYPE":"U","NORAD_CAT_ID":35752,"ELEMENT_SET_NO":999,"REV_AT_EPOCH":12359,"BSTAR":0,"MEAN_MOTION_DOT":-7.4e-7,"MEAN_MOTION_DDOT":0}},{"id":"36585","name":"GPS BIIF-1  (PRN 25)","constellationId":"gps","omm":{"OBJECT_NAME":"GPS BIIF-1  (PRN 25)","OBJECT_ID":"2010-022A","EPOCH":"2026-06-29T08:36:48.431232","MEAN_MOTION":2.00563096,"ECCENTRICITY":0.0126463,"INCLINATION":54.2696,"RA_OF_ASC_NODE":208.0717,"ARG_OF_PERICENTER":66.1279,"MEAN_ANOMALY":247.7907,"EPHEMERIS_TYPE":0,"CLASSIFICATION_TYPE":"U","NORAD_CAT_ID":36585,"ELEMENT_SET_NO":999,"REV_AT_EPOCH":11783,"BSTAR":0,"MEAN_MOTION_DOT":7.6e-7,"MEAN_MOTION_DDOT":0}},{"id":"38833","name":"GPS BIIF-3  (PRN 24)","constellationId":"gps","omm":{"OBJECT_NAME":"GPS BIIF-3  (PRN 24)","OBJECT_ID":"2012-053A","EPOCH":"2026-06-29T06:45:44.684352","MEAN_MOTION":2.00567753,"ECCENTRICITY":0.0181003,"INCLINATION":53.5879,"RA_OF_ASC_NODE":143.1039,"ARG_OF_PERICENTER":65.9496,"MEAN_ANOMALY":295.8899,"EPHEMERIS_TYPE":0,"CLASSIFICATION_TYPE":"U","NORAD_CAT_ID":38833,"ELEMENT_SET_NO":999,"REV_AT_EPOCH":9968,"BSTAR":0,"MEAN_MOTION_DOT":1.5e-7,"MEAN_MOTION_DDOT":0}},{"id":"39166","name":"GPS BIIF-4  (PRN 27)","constellationId":"gps","omm":{"OBJECT_NAME":"GPS BIIF-4  (PRN 27)","OBJECT_ID":"2013-023A","EPOCH":"2026-06-27T15:40:48.196704","MEAN_MOTION":2.0056356,"ECCENTRICITY":0.01414211,"INCLINATION":54.4958,"RA_OF_ASC_NODE":268.5471,"ARG_OF_PERICENTER":51.052,"MEAN_ANOMALY":310.2484,"EPHEMERIS_TYPE":0,"CLASSIFICATION_TYPE":"U","NORAD_CAT_ID":39166,"ELEMENT_SET_NO":999,"REV_AT_EPOCH":9609,"BSTAR":0,"MEAN_MOTION_DOT":-2.5e-7,"MEAN_MOTION_DDOT":0}},{"id":"39533","name":"GPS BIIF-5  (PRN 30)","constellationId":"gps","omm":{"OBJECT_NAME":"GPS BIIF-5  (PRN 30)","OBJECT_ID":"2014-008A","EPOCH":"2026-06-28T15:39:12.868992","MEAN_MOTION":2.00560606,"ECCENTRICITY":0.0084212,"INCLINATION":53.6562,"RA_OF_ASC_NODE":148.8522,"ARG_OF_PERICENTER":231.4139,"MEAN_ANOMALY":127.7949,"EPHEMERIS_TYPE":0,"CLASSIFICATION_TYPE":"U","NORAD_CAT_ID":39533,"ELEMENT_SET_NO":999,"REV_AT_EPOCH":8991,"BSTAR":0,"MEAN_MOTION_DOT":2.4e-7,"MEAN_MOTION_DDOT":0}}]}